start=new Date('2021-11-18T00:00:00.000Z').valueOf();
sats=[{"ARG_OF_PERICENTER":"79.1837","MEAN_MOTION":"15.06404092","ECCENTRICITY":"0.00015790","ELEMENT_SET_NO":"999","TLE_LINE1":"1 48393U 21038AS  21321.94644687  .00001899  00000-0  14632-3 0  9994","MEAN_ELEMENT_THEORY":"SGP4","MEAN_MOTION_DOT":"0.00001899","REV_AT_EPOCH":"3147","EPOCH":"2021-11-17T22:42:53.009568","CENTER_NAME":"EARTH","MEAN_ANOMALY":"280.9330","COUNTRY_CODE":"US","SITE":"AFETR","LAUNCH_DATE":"2021-05-04","PERIOD":"95.592","SEMIMAJOR_AXIS":"6925.336","EPHEMERIS_TYPE":"0","MEAN_MOTION_DDOT":"0.0000000000000","PERIAPSIS":"546.108","OBJECT_ID":"2021-038AS","REF_FRAME":"TEME","OBJECT_TYPE":"PAYLOAD","CLASSIFICATION_TYPE":"U","GP_ID":"189976552","INCLINATION":"53.0559","APOAPSIS":"548.295","BSTAR":"0.00014632000000","OBJECT_NAME":"STARLINK-2602","RA_OF_ASC_NODE":"201.9348","RCS_SIZE":"LARGE","TLE_LINE2":"2 48393  53.0559 201.9348 0001579  79.1837 280.9330 15.06404092 31471","FILE":"3217982","DECAY_DATE":null,"TIME_SYSTEM":"UTC","NORAD_CAT_ID":"48393"},{"MEAN_ELEMENT_THEORY":"SGP4","ECCENTRICITY":"0.00014820","TLE_LINE1":"1 48394U 21038AT  21321.94276045  .00000246  00000-0  35409-4 0  9995","ELEMENT_SET_NO":"999","MEAN_MOTION":"15.06400828","ARG_OF_PERICENTER":"84.2855","CENTER_NAME":"EARTH","MEAN_ANOMALY":"275.8302","EPOCH":"2021-11-17T22:37:34.502880","MEAN_MOTION_DOT":"0.00000246","REV_AT_EPOCH":"3147","SITE":"AFETR","COUNTRY_CODE":"US","LAUNCH_DATE":"2021-05-04","SEMIMAJOR_AXIS":"6925.346","PERIOD":"95.592","REF_FRAME":"TEME","OBJECT_ID":"2021-038AT","MEAN_MOTION_DDOT":"0.0000000000000","PERIAPSIS":"546.185","EPHEMERIS_TYPE":"0","OBJECT_TYPE":"PAYLOAD","APOAPSIS":"548.237","BSTAR":"0.00003540900000","GP_ID":"189977303","INCLINATION":"53.0549","CLASSIFICATION_TYPE":"U","FILE":"3217982","RCS_SIZE":"LARGE","TLE_LINE2":"2 48394  53.0549 201.9438 0001482  84.2855 275.8302 15.06400828 31476","RA_OF_ASC_NODE":"201.9438","OBJECT_NAME":"STARLINK-2573","TIME_SYSTEM":"UTC","NORAD_CAT_ID":"48394","DECAY_DATE":null},{"LAUNCH_DATE":"2021-05-04","PERIOD":"95.592","SEMIMAJOR_AXIS":"6925.363","SITE":"AFETR","COUNTRY_CODE":"US","EPHEMERIS_TYPE":"0","PERIAPSIS":"546.141","MEAN_MOTION_DDOT":"0.0000000000000","OBJECT_ID":"2021-038AU","REF_FRAME":"TEME","ARG_OF_PERICENTER":"72.1774","MEAN_MOTION":"15.06395142","TLE_LINE1":"1 48395U 21038AU  21321.92706923 -.00000213  00000-0  45992-5 0  9991","ELEMENT_SET_NO":"999","ECCENTRICITY":"0.00015700","MEAN_ELEMENT_THEORY":"SGP4","REV_AT_EPOCH":"3147","MEAN_MOTION_DOT":"-0.00000213","EPOCH":"2021-11-17T22:14:58.781472","MEAN_ANOMALY":"287.9387","CENTER_NAME":"EARTH","OBJECT_NAME":"STARLINK-2574","RA_OF_ASC_NODE":"202.0132","TLE_LINE2":"2 48395  53.0548 202.0132 0001570  72.1774 287.9387 15.06395142 31472","RCS_SIZE":"LARGE","FILE":"3217982","DECAY_DATE":null,"NORAD_CAT_ID":"48395","TIME_SYSTEM":"UTC","OBJECT_TYPE":"PAYLOAD","CLASSIFICATION_TYPE":"U","GP_ID":"189977551","INCLINATION":"53.0548","BSTAR":"0.00000459920000","APOAPSIS":"548.316"},{"CLASSIFICATION_TYPE":"U","INCLINATION":"53.0542","GP_ID":"189978146","APOAPSIS":"548.443","BSTAR":"0.00016719000000","OBJECT_TYPE":"PAYLOAD","DECAY_DATE":null,"TIME_SYSTEM":"UTC","NORAD_CAT_ID":"48396","RA_OF_ASC_NODE":"201.9534","OBJECT_NAME":"STARLINK-2575","RCS_SIZE":"LARGE","TLE_LINE2":"2 48396  53.0542 201.9534 0001798  74.4212 285.6976 15.06404999 31475","FILE":"3217982","MEAN_MOTION_DOT":"0.00002210","REV_AT_EPOCH":"3147","EPOCH":"2021-11-17T22:32:15.215136","CENTER_NAME":"EARTH","MEAN_ANOMALY":"285.6976","ARG_OF_PERICENTER":"74.4212","MEAN_MOTION":"15.06404999","ECCENTRICITY":"0.00017980","TLE_LINE1":"1 48396U 21038AV  21321.93906499  .00002210  00000-0  16719-3 0  9994","ELEMENT_SET_NO":"999","MEAN_ELEMENT_THEORY":"SGP4","EPHEMERIS_TYPE":"0","MEAN_MOTION_DDOT":"0.0000000000000","PERIAPSIS":"545.953","OBJECT_ID":"2021-038AV","REF_FRAME":"TEME","SITE":"AFETR","COUNTRY_CODE":"US","LAUNCH_DATE":"2021-05-04","PERIOD":"95.592","SEMIMAJOR_AXIS":"6925.333"},{"CLASSIFICATION_TYPE":"U","INCLINATION":"53.0555","GP_ID":"189976052","APOAPSIS":"548.351","BSTAR":"0.00025647000000","OBJECT_TYPE":"PAYLOAD","DECAY_DATE":null,"TIME_SYSTEM":"UTC","NORAD_CAT_ID":"48397","OBJECT_NAME":"STARLINK-2590","RA_OF_ASC_NODE":"201.9860","RCS_SIZE":"LARGE","TLE_LINE2":"2 48397  53.0555 201.9860 0001691  76.2675 283.8502 15.06411094 31476","FILE":"3217982","REV_AT_EPOCH":"3147","MEAN_MOTION_DOT":"0.00003542","EPOCH":"2021-11-17T22:26:56.704992","CENTER_NAME":"EARTH","MEAN_ANOMALY":"283.8502","ARG_OF_PERICENTER":"76.2675","MEAN_MOTION":"15.06411094","ECCENTRICITY":"0.00016910","ELEMENT_SET_NO":"999","TLE_LINE1":"1 48397U 21038AW  21321.93537853  .00003542  00000-0  25647-3 0  9998","MEAN_ELEMENT_THEORY":"SGP4","EPHEMERIS_TYPE":"0","MEAN_MOTION_DDOT":"0.0000000000000","PERIAPSIS":"546.008","OBJECT_ID":"2021-038AW","REF_FRAME":"TEME","SITE":"AFETR","COUNTRY_CODE":"US","SEMIMAJOR_AXIS":"6925.315","LAUNCH_DATE":"2021-05-04","PERIOD":"95.591"},{"APOAPSIS":"548.387","BSTAR":"0.00003083300000","CLASSIFICATION_TYPE":"U","GP_ID":"189976803","INCLINATION":"53.0551","OBJECT_TYPE":"PAYLOAD","TIME_SYSTEM":"UTC","NORAD_CAT_ID":"48398","DECAY_DATE":null,"FILE":"3217982","OBJECT_NAME":"STARLINK-2588","RA_OF_ASC_NODE":"201.9966","RCS_SIZE":"LARGE","TLE_LINE2":"2 48398  53.0551 201.9966 0001666  76.0275 284.0899 15.06393658 31473","CENTER_NAME":"EARTH","MEAN_ANOMALY":"284.0899","MEAN_MOTION_DOT":"0.00000178","REV_AT_EPOCH":"3147","EPOCH":"2021-11-17T22:21:38.724480","ECCENTRICITY":"0.00016660","TLE_LINE1":"1 48398U 21038AX  21321.93169820  .00000178  00000-0  30833-4 0  9990","ELEMENT_SET_NO":"999","MEAN_ELEMENT_THEORY":"SGP4","ARG_OF_PERICENTER":"76.0275","MEAN_MOTION":"15.06393658","OBJECT_ID":"2021-038AX","REF_FRAME":"TEME","EPHEMERIS_TYPE":"0","MEAN_MOTION_DDOT":"0.0000000000000","PERIAPSIS":"546.079","COUNTRY_CODE":"US","SITE":"AFETR","SEMIMAJOR_AXIS":"6925.368","LAUNCH_DATE":"2021-05-04","PERIOD":"95.593"},{"MEAN_MOTION_DOT":"-0.00000064","REV_AT_EPOCH":"3146","EPOCH":"2021-11-17T22:16:20.168544","MEAN_ANOMALY":"286.7726","CENTER_NAME":"EARTH","ARG_OF_PERICENTER":"73.3445","MEAN_MOTION":"15.06394511","TLE_LINE1":"1 48399U 21038AY  21321.92801121 -.00000064  00000-0  14596-4 0  9990","ELEMENT_SET_NO":"999","ECCENTRICITY":"0.00016560","MEAN_ELEMENT_THEORY":"SGP4","EPHEMERIS_TYPE":"0","PERIAPSIS":"546.084","MEAN_MOTION_DDOT":"0.0000000000000","OBJECT_ID":"2021-038AY","REF_FRAME":"TEME","LAUNCH_DATE":"2021-05-04","PERIOD":"95.592","SEMIMAJOR_AXIS":"6925.365","SITE":"AFETR","COUNTRY_CODE":"US","CLASSIFICATION_TYPE":"U","INCLINATION":"53.0553","GP_ID":"189977051","BSTAR":"0.00001459600000","APOAPSIS":"548.377","OBJECT_TYPE":"PAYLOAD","DECAY_DATE":null,"NORAD_CAT_ID":"48399","TIME_SYSTEM":"UTC","OBJECT_NAME":"STARLINK-2587","RA_OF_ASC_NODE":"202.0223","TLE_LINE2":"2 48399  53.0553 202.0223 0001656  73.3445 286.7726 15.06394511 31468","RCS_SIZE":"LARGE","FILE":"3217982"},{"REV_AT_EPOCH":"3022","MEAN_MOTION_DOT":"-0.00000070","EPOCH":"2021-11-17T17:24:24.971328","CENTER_NAME":"EARTH","MEAN_ANOMALY":"276.6421","ARG_OF_PERICENTER":"83.4753","MEAN_MOTION":"15.06390960","ECCENTRICITY":"0.00016270","ELEMENT_SET_NO":"999","TLE_LINE1":"1 48400U 21038AZ  21321.72528902 -.00000070  00000-0  14196-4 0  9997","MEAN_ELEMENT_THEORY":"SGP4","EPHEMERIS_TYPE":"0","MEAN_MOTION_DDOT":"0.0000000000000","PERIAPSIS":"546.115","OBJECT_ID":"2021-038AZ","REF_FRAME":"TEME","COUNTRY_CODE":"US","SITE":"AFETR","PERIOD":"95.593","LAUNCH_DATE":"2021-05-04","SEMIMAJOR_AXIS":"6925.376","CLASSIFICATION_TYPE":"U","INCLINATION":"53.0556","GP_ID":"189977805","APOAPSIS":"548.368","BSTAR":"0.00001419600000","OBJECT_TYPE":"PAYLOAD","DECAY_DATE":null,"TIME_SYSTEM":"UTC","NORAD_CAT_ID":"48400","RA_OF_ASC_NODE":"202.9261","OBJECT_NAME":"STARLINK-2576","RCS_SIZE":"LARGE","TLE_LINE2":"2 48400  53.0556 202.9261 0001627  83.4753 276.6421 15.06390960 30224","FILE":"3217982"},{"SEMIMAJOR_AXIS":"6925.355","LAUNCH_DATE":"2021-05-04","PERIOD":"95.592","SITE":"AFETR","COUNTRY_CODE":"US","OBJECT_ID":"2021-038BA","REF_FRAME":"TEME","EPHEMERIS_TYPE":"0","PERIAPSIS":"546.037","MEAN_MOTION_DDOT":"0.0000000000000","TLE_LINE1":"1 48401U 21038BA  21321.09772377  .00001678  00000-0  13151-3 0  9998","ELEMENT_SET_NO":"999","ECCENTRICITY":"0.00017090","MEAN_ELEMENT_THEORY":"SGP4","ARG_OF_PERICENTER":"70.8888","MEAN_MOTION":"15.06397757","MEAN_ANOMALY":"289.2286","CENTER_NAME":"EARTH","REV_AT_EPOCH":"3012","MEAN_MOTION_DOT":"0.00001678","EPOCH":"2021-11-17T02:20:43.333728","FILE":"3217692","OBJECT_NAME":"STARLINK-2571","RA_OF_ASC_NODE":"205.7451","TLE_LINE2":"2 48401  53.0548 205.7451 0001709  70.8888 289.2286 15.06397757 30127","RCS_SIZE":"LARGE","NORAD_CAT_ID":"48401","TIME_SYSTEM":"UTC","DECAY_DATE":null,"OBJECT_TYPE":"PAYLOAD","BSTAR":"0.00013151000000","APOAPSIS":"548.404","CLASSIFICATION_TYPE":"U","GP_ID":"189947971","INCLINATION":"53.0548"},{"OBJECT_TYPE":"PAYLOAD","BSTAR":"-0.00002960500000","APOAPSIS":"548.449","GP_ID":"189977304","INCLINATION":"53.0552","CLASSIFICATION_TYPE":"U","FILE":"3217982","TLE_LINE2":"2 48402  53.0552 202.9473 0001746  75.1511 284.9671 15.06391570 30226","RCS_SIZE":"LARGE","RA_OF_ASC_NODE":"202.9473","OBJECT_NAME":"STARLINK-2560","NORAD_CAT_ID":"48402","TIME_SYSTEM":"UTC","DECAY_DATE":null,"MEAN_ELEMENT_THEORY":"SGP4","ELEMENT_SET_NO":"999","TLE_LINE1":"1 48402U 21038BB  21321.72160014 -.00000722  00000-0 -29605-4 0  9991","ECCENTRICITY":"0.00017460","MEAN_MOTION":"15.06391570","ARG_OF_PERICENTER":"75.1511","MEAN_ANOMALY":"284.9671","CENTER_NAME":"EARTH","EPOCH":"2021-11-17T17:19:06.252096","REV_AT_EPOCH":"3022","MEAN_MOTION_DOT":"-0.00000722","LAUNCH_DATE":"2021-05-04","SEMIMAJOR_AXIS":"6925.374","PERIOD":"95.593","COUNTRY_CODE":"US","SITE":"AFETR","REF_FRAME":"TEME","OBJECT_ID":"2021-038BB","PERIAPSIS":"546.030","MEAN_MOTION_DDOT":"0.0000000000000","EPHEMERIS_TYPE":"0"}];
